{
  "type": "FeatureCollection",
  "features": [
    {
      "type": "Feature",
      "properties": {
        "norad_id": 40069,
        "name": "METEOR-M 2",
        "group": "weather",
        "lat": 81.32446222918303,
        "lon": -106.95694278197752,
        "alt_km": 813.7776082002747,
        "timestamp": "2025-12-19T22:41:52.021322+00:00",
        "meta_object_name": "METEOR-M 2",
        "meta_object_id": "2014-037A",
        "meta_epoch": "2025-12-19T18:54:18.103392",
        "meta_mean_motion": 14.21388941,
        "meta_eccentricity": 0.000535,
        "meta_inclination": 98.4899,
        "meta_ra_of_asc_node": 331.102,
        "meta_arg_of_pericenter": 187.3216,
        "meta_mean_anomaly": 172.7884,
        "meta_ephemeris_type": 0,
        "meta_classification_type": "U",
        "meta_norad_cat_id": 40069,
        "meta_element_set_no": 999,
        "meta_rev_at_epoch": 59383,
        "meta_bstar": 8.6356e-05,
        "meta_mean_motion_dot": 1.47e-06,
        "meta_mean_motion_ddot": 0,
        "tle_line1": "1 40069U 14037A   25353.78770953  .00000147  00000+0  86356-4 0  9991",
        "tle_line2": "2 40069  98.4899 331.1020 0005350 187.3216 172.7884 14.21388941593835"
      },
      "geometry": {
        "type": "Point",
        "coordinates": [
          -106.95694278197752,
          81.32446222918303
        ]
      }
    },
    {
      "type": "Feature",
      "properties": {
        "norad_id": 40267,
        "name": "HIMAWARI-8",
        "group": "weather",
        "lat": -0.002319333784861322,
        "lon": -150.09725372496246,
        "alt_km": 35785.862421672624,
        "timestamp": "2025-12-19T22:41:52.021333+00:00",
        "meta_object_name": "HIMAWARI-8",
        "meta_object_id": "2014-060A",
        "meta_epoch": "2025-12-19T17:21:22.929984",
        "meta_mean_motion": 1.00271382,
        "meta_eccentricity": 8.6e-05,
        "meta_inclination": 0.0296,
        "meta_ra_of_asc_node": 122.5476,
        "meta_arg_of_pericenter": 171.938,
        "meta_mean_anomaly": 195.097,
        "meta_ephemeris_type": 0,
        "meta_classification_type": "U",
        "meta_norad_cat_id": 40267,
        "meta_element_set_no": 999,
        "meta_rev_at_epoch": 4096,
        "meta_bstar": 0,
        "meta_mean_motion_dot": -2.51e-06,
        "meta_mean_motion_ddot": 0,
        "tle_line1": "1 40267U 14060A   25353.72318206 -.00000251  00000+0  00000+0 0  9994",
        "tle_line2": "2 40267   0.0296 122.5476 0000860 171.9380 195.0970  1.00271382 40962"
      },
      "geometry": {
        "type": "Point",
        "coordinates": [
          -150.09725372496246,
          -0.002319333784861322
        ]
      }
    },
    {
      "type": "Feature",
      "properties": {
        "norad_id": 40367,
        "name": "FENGYUN 2G",
        "group": "weather",
        "lat": 5.183411585314572,
        "lon": 168.53679689331443,
        "alt_km": 35792.057316601306,
        "timestamp": "2025-12-19T22:41:52.021345+00:00",
        "meta_object_name": "FENGYUN 2G",
        "meta_object_id": "2014-090A",
        "meta_epoch": "2025-12-19T18:56:11.651136",
        "meta_mean_motion": 1.00261653,
        "meta_eccentricity": 0.0002678,
        "meta_inclination": 5.1853,
        "meta_ra_of_asc_node": 75.0175,
        "meta_arg_of_pericenter": 203.1106,
        "meta_mean_anomaly": 193.8582,
        "meta_ephemeris_type": 0,
        "meta_classification_type": "U",
        "meta_norad_cat_id": 40367,
        "meta_element_set_no": 999,
        "meta_rev_at_epoch": 4020,
        "meta_bstar": 0,
        "meta_mean_motion_dot": -2.79e-06,
        "meta_mean_motion_ddot": 0,
        "tle_line1": "1 40367U 14090A   25353.78902374 -.00000279  00000+0  00000+0 0  9999",
        "tle_line2": "2 40367   5.1853  75.0175 0002678 203.1106 193.8582  1.00261653 40201"
      },
      "geometry": {
        "type": "Point",
        "coordinates": [
          168.53679689331443,
          5.183411585314572
        ]
      }
    },
    {
      "type": "Feature",
      "properties": {
        "norad_id": 40732,
        "name": "METEOSAT-11 (MSG-4)",
        "group": "weather",
        "lat": 0.3363152153577972,
        "lon": 78.4355766016583,
        "alt_km": 35788.89999831905,
        "timestamp": "2025-12-19T22:41:52.021357+00:00",
        "meta_object_name": "METEOSAT-11 (MSG-4)",
        "meta_object_id": "2015-034A",
        "meta_epoch": "2025-12-19T18:26:37.153248",
        "meta_mean_motion": 1.0026969,
        "meta_eccentricity": 8.45e-05,
        "meta_inclination": 2.7536,
        "meta_ra_of_asc_node": 71.9835,
        "meta_arg_of_pericenter": 136.1674,
        "meta_mean_anomaly": 166.3221,
        "meta_ephemeris_type": 0,
        "meta_classification_type": "U",
        "meta_norad_cat_id": 40732,
        "meta_element_set_no": 999,
        "meta_rev_at_epoch": 541,
        "meta_bstar": 0,
        "meta_mean_motion_dot": 8.3e-07,
        "meta_mean_motion_ddot": 0,
        "tle_line1": "1 40732U 15034A   25353.76848557  .00000083  00000+0  00000+0 0  9996",
        "tle_line2": "2 40732   2.7536  71.9835 0000845 136.1674 166.3221  1.00269690  5413"
      },
      "geometry": {
        "type": "Point",
        "coordinates": [
          78.4355766016583,
          0.3363152153577972
        ]
      }
    },
    {
      "type": "Feature",
      "properties": {
        "norad_id": 41105,
        "name": "ELEKTRO-L 2",
        "group": "weather",
        "lat": -1.9002810437136841,
        "lon": 54.899899455742,
        "alt_km": 35796.335484826486,
        "timestamp": "2025-12-19T22:41:52.021369+00:00",
        "meta_object_name": "ELEKTRO-L 2",
        "meta_object_id": "2015-074A",
        "meta_epoch": "2025-12-19T09:46:17.993280",
        "meta_mean_motion": 1.00272637,
        "meta_eccentricity": 0.0003545,
        "meta_inclination": 6.2415,
        "meta_ra_of_asc_node": 72.7491,
        "meta_arg_of_pericenter": 209.2952,
        "meta_mean_anomaly": 298.3067,
        "meta_ephemeris_type": 0,
        "meta_classification_type": "U",
        "meta_norad_cat_id": 41105,
        "meta_element_set_no": 999,
        "meta_rev_at_epoch": 3670,
        "meta_bstar": 0,
        "meta_mean_motion_dot": -9.8e-07,
        "meta_mean_motion_ddot": 0,
        "tle_line1": "1 41105U 15074A   25353.40715270 -.00000098  00000+0  00000+0 0  9998",
        "tle_line2": "2 41105   6.2415  72.7491 0003545 209.2952 298.3067  1.00272637 36706"
      },
      "geometry": {
        "type": "Point",
        "coordinates": [
          54.899899455742,
          -1.9002810437136841
        ]
      }
    },
    {
      "type": "Feature",
      "properties": {
        "norad_id": 41752,
        "name": "INSAT-3DR",
        "group": "weather",
        "lat": 0.10233938167898693,
        "lon": 143.1046650267616,
        "alt_km": 35823.28043569873,
        "timestamp": "2025-12-19T22:41:52.021381+00:00",
        "meta_object_name": "INSAT-3DR",
        "meta_object_id": "2016-054A",
        "meta_epoch": "2025-12-19T19:07:12.495360",
        "meta_mean_motion": 1.00271614,
        "meta_eccentricity": 0.0014134,
        "meta_inclination": 0.1091,
        "meta_ra_of_asc_node": 86.4186,
        "meta_arg_of_pericenter": 185.1345,
        "meta_mean_anomaly": 177.8779,
        "meta_ephemeris_type": 0,
        "meta_classification_type": "U",
        "meta_norad_cat_id": 41752,
        "meta_element_set_no": 999,
        "meta_rev_at_epoch": 3402,
        "meta_bstar": 0,
        "meta_mean_motion_dot": -5.3e-07,
        "meta_mean_motion_ddot": 0,
        "tle_line1": "1 41752U 16054A   25353.79667240 -.00000053  00000+0  00000+0 0  9991",
        "tle_line2": "2 41752   0.1091  86.4186 0014134 185.1345 177.8779  1.00271614 34022"
      },
      "geometry": {
        "type": "Point",
        "coordinates": [
          143.1046650267616,
          0.10233938167898693
        ]
      }
    },
    {
      "type": "Feature",
      "properties": {
        "norad_id": 41836,
        "name": "HIMAWARI-9",
        "group": "weather",
        "lat": -0.028321689865475768,
        "lon": -150.04499621371258,
        "alt_km": 35792.124344982025,
        "timestamp": "2025-12-19T22:41:52.021394+00:00",
        "meta_object_name": "HIMAWARI-9",
        "meta_object_id": "2016-064A",
        "meta_epoch": "2025-12-19T12:13:16.056768",
        "meta_mean_motion": 1.00265738,
        "meta_eccentricity": 0.000173,
        "meta_inclination": 0.0186,
        "meta_ra_of_asc_node": 351.5556,
        "meta_arg_of_pericenter": 344.8328,
        "meta_mean_anomaly": 76.0224,
        "meta_ephemeris_type": 0,
        "meta_classification_type": "U",
        "meta_norad_cat_id": 41836,
        "meta_element_set_no": 999,
        "meta_rev_at_epoch": 3340,
        "meta_bstar": 0,
        "meta_mean_motion_dot": 0,
        "meta_mean_motion_ddot": 0,
        "tle_line1": "1 41836U 16064A   25353.50921362  .00000000  00000+0  00000+0 0  9993",
        "tle_line2": "2 41836   0.0186 351.5556 0001730 344.8328  76.0224  1.00265738 33405"
      },
      "geometry": {
        "type": "Point",
        "coordinates": [
          -150.04499621371258,
          -0.028321689865475768
        ]
      }
    }
  ]
}